{
  "norad_id": 63409,
  "name": "STARLINK-33693",
  "history": [
    {
      "epoch": "2026-03-28T11:35:03.021504Z",
      "apogee_km": 483.4223527528711,
      "perigee_km": 482.5405618087416,
      "latitude_deg": -3.946379143182801e-05,
      "longitude_deg": 1.3123874927382417,
      "height_km": 483.12401943728725,
      "semi_major_axis_km": 6861.118457280806,
      "eccentricity": 6.426e-05,
      "inclination_deg": 43.0052,
      "raan_deg": 0.9775,
      "arg_perigee_deg": 146.3447,
      "mean_anomaly_deg": 213.7445,
      "mean_motion_rev_day": 15.27602589
    },
    {
      "epoch": "2026-03-29T03:16:35.531904Z",
      "apogee_km": 484.02836131872846,
      "perigee_km": 481.83419168390265,
      "latitude_deg": -2.9988680204850725e-05,
      "longitude_deg": 121.59017497427295,
      "height_km": 483.28031540888094,
      "semi_major_axis_km": 6861.068276501315,
      "eccentricity": 0.0001599,
      "inclination_deg": 43.0056,
      "raan_deg": 357.2852,
      "arg_perigee_deg": 238.5858,
      "mean_anomaly_deg": 121.4837,
      "mean_motion_rev_day": 15.27619348
    },
    {
      "epoch": "2026-03-30T02:48:56.430720Z",
      "apogee_km": 484.4557148187314,
      "perigee_km": 481.4725080554781,
      "latitude_deg": -2.532794613115184e-05,
      "longitude_deg": 121.9997840473523,
      "height_km": 482.8604862145359,
      "semi_major_axis_km": 6861.101111437105,
      "eccentricity": 0.0002174,
      "inclination_deg": 43.0047,
      "raan_deg": 351.7486,
      "arg_perigee_deg": 265.4406,
      "mean_anomaly_deg": 94.6197,
      "mean_motion_rev_day": 15.27608382
    },
    {
      "epoch": "2026-03-30T02:48:56.431584Z",
      "apogee_km": 484.4559892627758,
      "perigee_km": 481.4722336114346,
      "latitude_deg": -2.2181254274972022e-05,
      "longitude_deg": 121.9997837926948,
      "height_km": 482.8605080266847,
      "semi_major_axis_km": 6861.101111437105,
      "eccentricity": 0.00021744,
      "inclination_deg": 43.0047,
      "raan_deg": 351.7486,
      "arg_perigee_deg": 265.4406,
      "mean_anomaly_deg": 94.6197,
      "mean_motion_rev_day": 15.27608382
    },
    {
      "epoch": "2026-03-30T10:39:44.155584Z",
      "apogee_km": 484.0331536499052,
      "perigee_km": 482.1168171423842,
      "latitude_deg": -1.196811356900345e-05,
      "longitude_deg": 2.1309970594329317,
      "height_km": 483.02125889602974,
      "semi_major_axis_km": 6861.211985396145,
      "eccentricity": 0.00013965,
      "inclination_deg": 43.0039,
      "raan_deg": 349.9009,
      "arg_perigee_deg": 259.8302,
      "mean_anomaly_deg": 100.2392,
      "mean_motion_rev_day": 15.27571354
    }
  ]
}